ONEWEB-0283             
1 49001U 21060AL  25348.79270765 -.00000427  00000+0 -11497-2 0  9996
2 49001  87.9049 265.4983 0001860  71.5139 288.6194 13.16593743215357
ONEWEB-0284             
1 49002U 21060AM  25348.78638492 -.00000012  00000+0 -63953-4 0  9997
2 49002  87.9052 265.4889 0001446  64.2934 295.8346 13.16596734215339
ONEWEB-0285             
1 49075U 21075A   25348.64238699  .00001274  00000+0  35006-2 0  9998
2 49075  87.8941  27.3175 0001707  95.0846 265.0478 13.12537032211009
ONEWEB-0286             
1 49076U 21075B   25348.62453316  .00000089  00000+0  21096-3 0  9990
2 49076  87.8934  27.3535 0001761 103.4744 256.6581 13.12423213210356
ONEWEB-0287             
1 49077U 21075C   25348.64177603  .00000026  00000+0  33011-4 0  9997
2 49077  87.9122  42.5610 0001674 115.8846 244.2458 13.17651789209320
ONEWEB-0288             
1 49078U 21075D   25348.82923585 -.00000828  00000+0 -23403-2 0  9990
2 49078  87.8936  27.2751 0001589  97.3930 262.7379 13.12343561211008
ONEWEB-0289             
1 49079U 21075E   25348.68043878 -.00000013  00000+0 -67447-4 0  9997
2 49079  87.9110  42.5685 0001443  89.2035 270.9262 13.17647561209905
ONEWEB-0290             
1 49080U 21075F   25348.88137692  .00000055  00000+0  10910-3 0  9995
2 49080  87.9120  42.4907 0001598  80.1384 279.9928 13.17646758209345
